{
  "norad_id": 59600,
  "name": "GSAT0227 (GALILEO 30)",
  "history": [
    {
      "epoch": "2026-03-25T16:59:50.260704",
      "apogee_km": 23223.94019551199,
      "perigee_km": 23220.290484398476,
      "latitude_deg": 26.87722451068952,
      "longitude_deg": -80.0108214400243,
      "semi_major_axis_km": 29600.252339955234,
      "eccentricity": 6.165e-05,
      "inclination_deg": 55.0598,
      "raan_deg": 103.4096,
      "arg_perigee_deg": 12.6919,
      "mean_anomaly_deg": 347.3562,
      "mean_motion_rev_day": 1.70474585
    }
  ]
}